{
  "norad_id": 59096,
  "name": "STARLINK-31291",
  "history": [
    {
      "epoch": "2026-03-28T17:26:10.033728Z",
      "apogee_km": 484.0134761369645,
      "perigee_km": 482.05488621158565,
      "latitude_deg": 4.509949054487793e-06,
      "longitude_deg": 115.44358572753234,
      "height_km": 482.5285224587175,
      "semi_major_axis_km": 6861.171181174274,
      "eccentricity": 0.00014273,
      "inclination_deg": 43.0001,
      "raan_deg": 203.1282,
      "arg_perigee_deg": 286.7594,
      "mean_anomaly_deg": 73.3101,
      "mean_motion_rev_day": 15.27584981
    }
  ]
}