{"fetched_at":"2026-03-30T06:02:59Z","count":15439,"tles":[{"name":"STARLINK-31291","line1":"1 59096U 24041Y   26087.72650502 -.00000322  00000+0 -21847-5 0  9995","line2":"2 59096  43.0001 203.1282 0001427 286.7594  73.3101 15.27584981117185","category":"Starlink"}]}